GOES-16
1 41866U 16071A   25314.86508264 -.00000095  00000-0  00000-0 0  9999
2 41866   0.0805  82.4542 0003230 165.0373   9.5434  1.00271203 32914
FENGYUN-4A
1 41882U 16077A   25314.91032289 -.00000360  00000-0  00000-0 0  9993
2 41882   1.7670  82.6658 0005081 154.2927 264.8823  1.00272896 32749
FOX-1B (AO-91)
1 43017U 17073E   25314.60310840  .00014270  00000-0  68439-3 0  9997
2 43017  97.4974 181.5466 0164157   1.2965 358.8656 15.07806576432392
CANX-2
1 32790U 08021H   25314.88934555  .00006905  00000-0  51300-3 0  9996
2 32790  97.8385 286.1157 0012356  63.1194 297.1292 15.03287391951987
AIST-2 (RS-43)
1 39133U 13015D   25314.98618847  .00015154  00000-0  64103-3 0  9998
2 39133  64.8703 249.2091 0030442 260.0253  99.7439 15.22976686690634
NANOSATC-BR1
1 40024U 14033Q   25314.74777577  .00023253  00000-0  98533-3 0  9993
2 40024  98.0928 323.9022 0002864 195.1699 164.9451 15.23154439620633
QB50P1
1 40025U 14033R   25314.83032667  .00013974  00000-0  78170-3 0  9992
2 40025  98.0973 306.4243 0007429 248.8844 111.1592 15.13572641619945
QB50P2
1 40032U 14033Y   25314.70377763  .00013012  00000-0  78175-3 0  9993
2 40032  98.0618 293.8293 0007313 185.4677 174.6473 15.11014689619623
PERSEUS-M2
1 40037U 14033AD  25314.94543292  .00004127  00000-0  38755-3 0  9993
2 40037  97.9710 256.5555 0010878 309.3158  50.7096 14.94485798618174
PERSEUS-M1
1 40039U 14033AF  25314.39538378  .00003413  00000-0  32114-3 0  9993
2 40039  97.9417 250.4144 0010583 309.9280  50.1010 14.94520433617942
POLYITAN-1
1 40042U 14033AJ  25314.46207885  .00024769  00000-0  10228-2 0  9999
2 40042  98.1100 316.3881 0008321 174.1376 185.9959 15.23987125620179
TIGRISAT
1 40043U 14033AK  25314.40455837  .00003700  00000-0  44152-3 0  9992
2 40043  97.7551 105.0129 0051702  72.8164 287.8701 14.83886424613166
UKUBE-1
1 40074U 14037F   25314.43223215  .00015548  00000-0  99356-3 0  9995
2 40074  98.4121 290.6641 0002293 117.7314 242.4145 15.08740081615514
DEORBITSAIL
1 40719U 15032E   25314.83996123  .00012980  00000-0  10587-2 0  9991
2 40719  97.6233 171.0029 0008353 232.8197 127.2264 14.99553999558470
HORYU-IV
1 41340U 16012D   25314.91136879  .00054617  00000-0  10410-2 0  9992
2 41340  30.9929 167.9019 0004909 273.3327  86.6759 15.46882213536610
D-SAT
1 42794U 17036AF  25314.90686833  .00009286  00000-0  48246-3 0  9993
2 42794  97.5336 290.3565 0087717 195.5158 164.3382 15.12964121457808
CORVUS-BC2
1 42846U 17042X   25314.78085936  .00006283  00000-0  45381-3 0  9992
2 42846  97.3854 120.2129 0015002 133.7899 226.4572 15.04326110454203
CORVUS-BC1
1 42847U 17042Y   25314.40762603  .00006703  00000-0  48103-3 0  9997
2 42847  97.3891 120.5104 0013492 114.5608 245.7026 15.04562003454174
APRIZESAT-5 
1 37792U 11044E   25314.74985535  .00002686  00000-0  35086-3 0  9996
2 37792  98.2318 236.8619 0052673 347.5913  12.3997 14.80421730766461
APRIZESAT-6
1 37793U 11044F   25314.51020823  .00001785  00000-0  26053-3 0  9995
2 37793  98.2450 215.4604 0044798  66.0040 106.9444 14.76419224764879
APRIZESAT-7
1 39416U 13066A   25314.74006408  .00002893  00000-0  29683-3 0  9996
2 39416  97.7419 266.6130 0035375 213.4354 146.4631 14.90741690648678
APRIZESAT-8
1 39425U 13066K   25314.83537078  .00002331  00000-0  26197-3 0  9992
2 39425  97.7952 260.8102 0045001 285.0883  74.5356 14.86976101647210
BUGSAT-1 (TITA)
1 40014U 14033E   25314.91070693  .00012582  00000-0  71449-3 0  9996
2 40014  98.0587  30.0214 0029395 203.0884 156.9027 15.12709702622803
SAUDISAT-4
1 40016U 14033G   25314.84830645  .00001387  00000-0  19084-3 0  9999
2 40016  97.7279 104.0220 0046439  64.8588 295.7431 14.79082237613798
TABLETSAT-AURORA
1 40017U 14033H   25314.93728610  .00015531  00000-0  86091-3 0  9996
2 40017  98.0536  11.3656 0011317 237.8400 122.1733 15.13838967622149
APRIZESAT-9
1 40018U 14033J   25314.35572783  .00001807  00000-0  27439-3 0  9993
2 40018  97.8767  88.3906 0066601 182.8152 177.2691 14.73787018611321
APRIZESAT-10
1 40019U 14033K   25314.80358727  .00001484  00000-0  24176-3 0  9990
2 40019  97.9387  82.0853 0078085 250.9141 108.3598 14.70500552610151
AISAT
1 40054U 14034B   25314.27593130  .00015093  00000-0  11207-2 0  9991
2 40054  98.2495 206.4639 0008416 233.5516 126.4932 15.03118294614255
COSMOS-2407 [+]
1 28380U 04028A   25314.32753701  .00000107  00000-0  93188-4 0  9999
2 28380  82.9616 236.8873 0039940 142.7761 333.0706 13.76308255 69776
COSMOS-2414 [+]
1 28521U 05002A   25314.44988052  .00000116  00000-0  83899-4 0  9999
2 28521  82.9522 209.0721 0038933 232.2031 127.5605 13.87896729 53473
COSMOS-2463 [+]
1 36519U 10017A   25314.56203472  .00000090  00000-0  82508-4 0  9993
2 36519  82.9627  50.3519 0036453  18.8349 351.6786 13.71644679777967
NOAA-15
1 25338U 98030A   25314.92735614  .00000255  00000-0  12229-3 0  9994
2 25338  98.5252 336.2794 0009118 266.8352  93.1785 14.27050741430167
NOAA-18
1 28654U 05018A   25314.92076103  .00000201  00000-0  12979-3 0  9996
2 28654  98.8321  32.5820 0014983  54.2460 306.0103 14.13664088 55479
NOAA-19
1 33591U 09005A   25314.88131246  .00000110  00000-0  82484-4 0  9995
2 33591  98.9806  20.3240 0012797 289.0123  70.9663 14.13425582863648
SARAL
1 39086U 13009A   25314.95223782  .00000212  00000-0  93878-4 0  9996
2 39086  98.5518 139.2961 0001558 178.2447 181.8743 14.32739673664358
LAPAN-A3
1 41603U 16040E   25314.93794902  .00007825  00000-0  26159-3 0  9991
2 41603  97.1433 313.6598 0012746  79.7241 280.5437 15.31182265521391
BIROS
1 41604U 16040F   25314.06589167  .00109446  00000-0  60991-3 0  9995
2 41604  97.0735 344.4612 0001346 355.8010   4.3246 15.79125493523553
METOP-A
1 29499U 06044A   25314.90258755  .00002395  00000-0  28409-3 0  9998
2 29499  98.3301  50.0494 0177753  45.2726  63.5559 14.74853921993263
METEOR M1
1 35865U 09049A   25314.62957926  .00000241  00000-0  12629-3 0  9990
2 35865  98.7083 274.0649 0001616 193.6478 166.4657 14.23079430838162
METOP-B
1 38771U 12049A   25314.90498423  .00000211  00000-0  11656-3 0  9992
2 38771  98.6845   5.3959 0001370 238.7691 121.3352 14.21389763682250
METEOR M2
1 40069U 14037A   25314.93012447  .00000308  00000-0  16039-3 0  9992
2 40069  98.4868 293.7394 0004989 320.5501  39.5313 14.21367237588312
CSSWE
1 38761U 12048D   25314.58432833  .00036381  00000-0  10447-2 0  9990
2 38761  64.6626 107.0717 0096661 235.1462 124.0552 15.31054207 82772
MCUBED-2
1 39469U 13072H   25314.71354053  .00016520  00000-0  70890-3 0  9998
2 39469 120.4920 232.5846 0167142 135.5415 225.9202 15.11252615 84728
IPEX
1 39471U 13072K   25314.62347048  .00010341  00000-0  53397-3 0  9995
2 39471 120.4652 190.8542 0185301 124.5927 237.2768 15.03448645 82312
FOX-1A (AO-85)
1 40967U 15058D   25314.78184765  .00004349  00000-0  39687-3 0  9992
2 40967  64.7756 236.9324 0138747 142.0911 219.0069 14.89315587 81029
OOREOS
1 37224U 10062C   25314.72339600  .00004328  00000-0  42742-3 0  9991
2 37224  71.9710 214.7443 0013172 128.1854 232.0505 14.92407659 84032
STARS (KUKAI)
1 33498U 09002G   25314.38530740  .00007092  00000-0  67995-3 0  9990
2 33498  98.1336 248.4253 0008827 159.6679 200.4892 14.93425308905799
YUBELEINY-2 (RS-40)
1 38735U 12041C   25315.00502147  .00000037  00000-0  19420-3 0  9998
2 38735  82.4787 210.7179 0016887 181.0591 179.0455 12.42638815602746
AIST-1
1 39492U 13078C   25314.92894882  .00003657  00000-0  33044-3 0  9999
2 39492  82.4135 122.1900 0015892 291.2069  68.7454 14.95136422642622
VELOX-1
1 40057U 14034E   25314.96809979  .00011795  00000-0  10831-2 0  9998
2 40057  98.2695 202.7849 0006150 275.1365  84.9152 14.94994361613964
DX1
1 40071U 14037C   25314.90536458  .00004498  00000-0  48530-3 0  9990
2 40071  98.3587 258.9148 0005841 263.1013  96.9538 14.88927005613616
COSMOS-2491 (RS-46) [i]
1 39497U 13076E   25314.97680934  .00000022  00000-0  88049-4 0  9997
2 39497  82.4825 304.3376 0012428 202.3452 157.7088 12.43492338538139
COSMOS-2499 (RS-47) [i]
1 39765U 14028E   25314.91268514  .00000040  00000-0  10329-3 0  9998
2 39765  82.4532  39.7221 0232257 153.8993 207.4041 12.82897624537034
TRANSIT 5B-5
1 00965U 64083D   25314.48926086  .00000094  00000-0  11903-3 0  9999
2 00965  90.0703 201.3653 0040812 195.0246 339.6605 13.56985692 13957
EUTELSAT 1-F4 (ECS 4)
1 18351U 87078B   25314.48117346 -.00000177  00000-0  00000-0 0  9993
2 18351  13.9857 343.6498 0007081  20.2345 337.4013  0.98688993124594
BISONSAT
1 40968U 15058E   25314.18230473  .00005849  00000-0  48504-3 0  9999
2 40968  64.7752 223.6369 0127586 140.7621 220.2828 14.93578212 83929
DTUSAT-2
1 40030U 14033W   25314.89033506  .00013791  00000-0  82952-3 0  9997
2 40030  98.0745 294.5872 0006515 258.2342 101.8155 15.10961477619673
ELEKTRO-L2
1 41105U 15074A   25314.93378199 -.00000119  00000-0  00000-0 0  9994
2 41105   6.1442  73.2026 0003691 191.0459 107.7939  1.00271204 36314
DOVE-3
1 39429U 13066P   25314.86913690  .00004994  00000-0  67791-3 0  9999
2 39429  97.6859 180.7198 0117809  13.0157 347.4048 14.74531479638811
FORTE
1 24920U 97047A   25314.81248397  .00000364  00000-0  17024-3 0  9991
2 24920  69.9508 147.2215 0023892 221.8688 138.0607 14.27806489467514
DMSP 5D-2 F15/USA-147
1 25991U 99067A   25314.91102947  .00000276  00000-0  15889-3 0  9994
2 25991  99.0253 345.4402 0008933 262.8426 197.7072 14.17453972339721
CASSIOPE-1
1 39265U 13055A   25314.89025407  .00034660 -70794-6  47581-3 0  9990
2 39265  80.9363 328.6445 0354726  70.2130 293.6972 15.08109041634569
D-STAR ONE PHOENIX
1 43188U 18014J   25314.70052237  .00008713  00000-0  48602-3 0  9991
2 43188  97.5487 216.2114 0011036  56.0034 304.2245 15.13755424425673
S-NET D
1 43186U 18014G   25314.96509458  .00008487  00000-0  47356-3 0  9992
2 43186  97.5470 216.3233 0010529  58.9538 301.2725 15.13754381425718
TEN-KOH
1 43677U 18084G   25314.92712089  .00004666  00000-0  36562-3 0  9998
2 43677  98.0684 133.2805 0009275 116.1736 244.0442 15.01484252383392
